{
  "type": "FeatureCollection",
  "features": [
    {
      "type": "Feature",
      "properties": {
        "norad_id": 29922,
        "name": "FENGYUN 1C DEB",
        "group": "fengyun-1c-debris",
        "lat": 77.69474169061867,
        "lon": 6.752690721886656,
        "alt_km": 905.599958849014,
        "timestamp": "2025-12-22T20:43:46.120976+00:00",
        "meta_object_name": "FENGYUN 1C DEB",
        "meta_object_id": "1999-025HU",
        "meta_epoch": "2025-12-22T10:02:30.032160",
        "meta_mean_motion": 13.98582909,
        "meta_eccentricity": 0.00926127,
        "meta_inclination": 99.1336,
        "meta_ra_of_asc_node": 53.8297,
        "meta_arg_of_pericenter": 340.2681,
        "meta_mean_anomaly": 19.4908,
        "meta_ephemeris_type": 0,
        "meta_classification_type": "U",
        "meta_norad_cat_id": 29922,
        "meta_element_set_no": 999,
        "meta_rev_at_epoch": 96576,
        "meta_bstar": 7.6514485e-05,
        "meta_mean_motion_dot": 6.9e-07,
        "meta_mean_motion_ddot": 0,
        "tle_line1": "1 29922U 99025HU  25356.41840315  .00000069  00000+0  76514-4 0  9997",
        "tle_line2": "2 29922  99.1336  53.8297 0092612 340.2681  19.4908 13.98582909965763"
      },
      "geometry": {
        "type": "Point",
        "coordinates": [
          6.752690721886656,
          77.69474169061867
        ]
      }
    },
    {
      "type": "Feature",
      "properties": {
        "norad_id": 29923,
        "name": "FENGYUN 1C DEB",
        "group": "fengyun-1c-debris",
        "lat": 59.64869476140414,
        "lon": -159.9927212212198,
        "alt_km": 828.1677866402724,
        "timestamp": "2025-12-22T20:43:46.120986+00:00",
        "meta_object_name": "FENGYUN 1C DEB",
        "meta_object_id": "1999-025HV",
        "meta_epoch": "2025-12-21T19:31:43.417344",
        "meta_mean_motion": 14.13907647,
        "meta_eccentricity": 0.00179531,
        "meta_inclination": 98.6878,
        "meta_ra_of_asc_node": 3.8503,
        "meta_arg_of_pericenter": 143.9972,
        "meta_mean_anomaly": 33.4845,
        "meta_ephemeris_type": 0,
        "meta_classification_type": "U",
        "meta_norad_cat_id": 29923,
        "meta_element_set_no": 999,
        "meta_rev_at_epoch": 97403,
        "meta_bstar": 0.00037373712,
        "meta_mean_motion_dot": 6.67e-06,
        "meta_mean_motion_ddot": 0,
        "tle_line1": "1 29923U 99025HV  25355.81369696  .00000667  00000+0  37374-3 0  9993",
        "tle_line2": "2 29923  98.6878   3.8503 0017953 143.9972  33.4845 14.13907647974034"
      },
      "geometry": {
        "type": "Point",
        "coordinates": [
          -159.9927212212198,
          59.64869476140414
        ]
      }
    },
    {
      "type": "Feature",
      "properties": {
        "norad_id": 29924,
        "name": "FENGYUN 1C DEB",
        "group": "fengyun-1c-debris",
        "lat": -81.16422453807786,
        "lon": 90.9621439546298,
        "alt_km": 856.6882563481122,
        "timestamp": "2025-12-22T20:43:46.120996+00:00",
        "meta_object_name": "FENGYUN 1C DEB",
        "meta_object_id": "1999-025HW",
        "meta_epoch": "2025-12-22T13:14:34.440864",
        "meta_mean_motion": 14.0889304,
        "meta_eccentricity": 0.00261293,
        "meta_inclination": 98.7338,
        "meta_ra_of_asc_node": 9.2047,
        "meta_arg_of_pericenter": 228.925,
        "meta_mean_anomaly": 260.8942,
        "meta_ephemeris_type": 0,
        "meta_classification_type": "U",
        "meta_norad_cat_id": 29924,
        "meta_element_set_no": 999,
        "meta_rev_at_epoch": 97346,
        "meta_bstar": 8.6145435e-05,
        "meta_mean_motion_dot": 1.07e-06,
        "meta_mean_motion_ddot": 0,
        "tle_line1": "1 29924U 99025HW  25356.55178751  .00000107  00000+0  86145-4 0  9996",
        "tle_line2": "2 29924  98.7338   9.2047 0026129 228.9250 260.8942 14.08893040973463"
      },
      "geometry": {
        "type": "Point",
        "coordinates": [
          90.9621439546298,
          -81.16422453807786
        ]
      }
    },
    {
      "type": "Feature",
      "properties": {
        "norad_id": 29926,
        "name": "FENGYUN 1C DEB",
        "group": "fengyun-1c-debris",
        "lat": -46.52606000922998,
        "lon": -5.817304561226746,
        "alt_km": 655.3002675803837,
        "timestamp": "2025-12-22T20:43:46.121006+00:00",
        "meta_object_name": "FENGYUN 1C DEB",
        "meta_object_id": "1999-025HY",
        "meta_epoch": "2025-12-22T05:56:23.804736",
        "meta_mean_motion": 14.33417447,
        "meta_eccentricity": 0.02479037,
        "meta_inclination": 98.2843,
        "meta_ra_of_asc_node": 344.7523,
        "meta_arg_of_pericenter": 271.7418,
        "meta_mean_anomaly": 101.1672,
        "meta_ephemeris_type": 0,
        "meta_classification_type": "U",
        "meta_norad_cat_id": 29926,
        "meta_element_set_no": 999,
        "meta_rev_at_epoch": 98717,
        "meta_bstar": 0.00028528753,
        "meta_mean_motion_dot": 1.057e-05,
        "meta_mean_motion_ddot": 0,
        "tle_line1": "1 29926U 99025HY  25356.24749774  .00001057  00000+0  28529-3 0  9999",
        "tle_line2": "2 29926  98.2843 344.7523 0247903 271.7418 101.1672 14.33417447987175"
      },
      "geometry": {
        "type": "Point",
        "coordinates": [
          -5.817304561226746,
          -46.52606000922998
        ]
      }
    },
    {
      "type": "Feature",
      "properties": {
        "norad_id": 29927,
        "name": "FENGYUN 1C DEB",
        "group": "fengyun-1c-debris",
        "lat": 34.67579336116202,
        "lon": -151.61131857377848,
        "alt_km": 632.8389305218525,
        "timestamp": "2025-12-22T20:43:46.121017+00:00",
        "meta_object_name": "FENGYUN 1C DEB",
        "meta_object_id": "1999-025HZ",
        "meta_epoch": "2025-12-21T00:14:52.042848",
        "meta_mean_motion": 14.74835758,
        "meta_eccentricity": 0.00180142,
        "meta_inclination": 99.0826,
        "meta_ra_of_asc_node": 19.9579,
        "meta_arg_of_pericenter": 185.2201,
        "meta_mean_anomaly": 204.7678,
        "meta_ephemeris_type": 0,
        "meta_classification_type": "U",
        "meta_norad_cat_id": 29927,
        "meta_element_set_no": 999,
        "meta_rev_at_epoch": 98769,
        "meta_bstar": 0.0017421746,
        "meta_mean_motion_dot": 0.0001166,
        "meta_mean_motion_ddot": 0,
        "tle_line1": "1 29927U 99025HZ  25355.01032457  .00011660  00000+0  17422-2 0  9997",
        "tle_line2": "2 29927  99.0826  19.9579 0018014 185.2201 204.7678 14.74835758987693"
      },
      "geometry": {
        "type": "Point",
        "coordinates": [
          -151.61131857377848,
          34.67579336116202
        ]
      }
    },
    {
      "type": "Feature",
      "properties": {
        "norad_id": 29928,
        "name": "FENGYUN 1C DEB",
        "group": "fengyun-1c-debris",
        "lat": -19.3840118965535,
        "lon": 24.807466144717235,
        "alt_km": 949.3504305461092,
        "timestamp": "2025-12-22T20:43:46.121027+00:00",
        "meta_object_name": "FENGYUN 1C DEB",
        "meta_object_id": "1999-025JA",
        "meta_epoch": "2025-12-21T19:43:07.472928",
        "meta_mean_motion": 13.8809906,
        "meta_eccentricity": 0.01431383,
        "meta_inclination": 99.5838,
        "meta_ra_of_asc_node": 20.3298,
        "meta_arg_of_pericenter": 78.9931,
        "meta_mean_anomaly": 98.2446,
        "meta_ephemeris_type": 0,
        "meta_classification_type": "U",
        "meta_norad_cat_id": 29928,
        "meta_element_set_no": 999,
        "meta_rev_at_epoch": 95617,
        "meta_bstar": 0.0005577146,
        "meta_mean_motion_dot": 6.76e-06,
        "meta_mean_motion_ddot": 0,
        "tle_line1": "1 29928U 99025JA  25355.82161427  .00000676  00000+0  55771-3 0  9992",
        "tle_line2": "2 29928  99.5838  20.3298 0143138  78.9931  98.2446 13.88099060956170"
      },
      "geometry": {
        "type": "Point",
        "coordinates": [
          24.807466144717235,
          -19.3840118965535
        ]
      }
    },
    {
      "type": "Feature",
      "properties": {
        "norad_id": 29929,
        "name": "FENGYUN 1C DEB",
        "group": "fengyun-1c-debris",
        "lat": -31.65651386336876,
        "lon": -79.07508230572404,
        "alt_km": 990.6813006794619,
        "timestamp": "2025-12-22T20:43:46.121037+00:00",
        "meta_object_name": "FENGYUN 1C DEB",
        "meta_object_id": "1999-025JB",
        "meta_epoch": "2025-12-22T06:11:25.767168",
        "meta_mean_motion": 14.01387852,
        "meta_eccentricity": 0.01316769,
        "meta_inclination": 98.6246,
        "meta_ra_of_asc_node": 274.9829,
        "meta_arg_of_pericenter": 149.515,
        "meta_mean_anomaly": 4.0133,
        "meta_ephemeris_type": 0,
        "meta_classification_type": "U",
        "meta_norad_cat_id": 29929,
        "meta_element_set_no": 999,
        "meta_rev_at_epoch": 96089,
        "meta_bstar": 0.00089976928,
        "meta_mean_motion_dot": 1.424e-05,
        "meta_mean_motion_ddot": 0,
        "tle_line1": "1 29929U 99025JB  25356.25793712  .00001424  00000+0  89977-3 0  9996",
        "tle_line2": "2 29929  98.6246 274.9829 0131676 149.5150   4.0133 14.01387852960890"
      },
      "geometry": {
        "type": "Point",
        "coordinates": [
          -79.07508230572404,
          -31.65651386336876
        ]
      }
    }
  ]
}